start=new Date('2022-07-22T00:00:00.000Z').valueOf();
sats=[{"MEAN_ELEMENT_THEORY":"SGP4","TLE_LINE1":"1 47810U 21018Z   22202.72856929 -.00004490  00000-0 -28285-3 0  9995","GP_ID":"208604595","NORAD_CAT_ID":"47810","ELEMENT_SET_NO":"999","TIME_SYSTEM":"UTC","ECCENTRICITY":"0.00015470","EPHEMERIS_TYPE":"0","COUNTRY_CODE":"US","OBJECT_ID":"2021-018Z","CLASSIFICATION_TYPE":"U","SITE":"AFETR","BSTAR":"-0.00028285000000","EPOCH":"2022-07-21T17:29:08.386656","PERIOD":"95.594","APOAPSIS":"548.351","PERIAPSIS":"546.209","MEAN_ANOMALY":"279.7117","REV_AT_EPOCH":"7650","ARG_OF_PERICENTER":"80.4047","TLE_LINE2":"2 47810  53.0531  98.5867 0001547  80.4047 279.7117 15.06378343 76504","FILE":"3519265","RCS_SIZE":"LARGE","INCLINATION":"53.0531","SEMIMAJOR_AXIS":"6925.415","REF_FRAME":"TEME","RA_OF_ASC_NODE":"98.5867","OBJECT_TYPE":"PAYLOAD","OBJECT_NAME":"STARLINK-2391","MEAN_MOTION_DDOT":"0.0000000000000","CENTER_NAME":"EARTH","DECAY_DATE":null,"MEAN_MOTION":"15.06378343","LAUNCH_DATE":"2021-03-11","MEAN_MOTION_DOT":"-0.00004490"},{"EPHEMERIS_TYPE":"0","COUNTRY_CODE":"US","CLASSIFICATION_TYPE":"U","OBJECT_ID":"2021-018AA","SITE":"AFETR","EPOCH":"2022-07-21T21:37:16.077792","BSTAR":"-0.00003471000000","PERIOD":"95.593","APOAPSIS":"548.295","PERIAPSIS":"546.177","MEAN_ANOMALY":"275.3255","MEAN_ELEMENT_THEORY":"SGP4","TLE_LINE1":"1 47811U 21018AA  22202.90088053 -.00000798  00000-0 -34710-4 0  9999","GP_ID":"208604341","ECCENTRICITY":"0.00015290","ELEMENT_SET_NO":"999","NORAD_CAT_ID":"47811","TIME_SYSTEM":"UTC","SEMIMAJOR_AXIS":"6925.371","REF_FRAME":"TEME","RA_OF_ASC_NODE":"67.8112","OBJECT_TYPE":"PAYLOAD","OBJECT_NAME":"STARLINK-2392","MEAN_MOTION_DDOT":"0.0000000000000","CENTER_NAME":"EARTH","DECAY_DATE":null,"MEAN_MOTION":"15.06392750","LAUNCH_DATE":"2021-03-11","MEAN_MOTION_DOT":"-0.00000798","REV_AT_EPOCH":"7695","ARG_OF_PERICENTER":"84.7908","TLE_LINE2":"2 47811  53.0561  67.8112 0001529  84.7908 275.3255 15.06392750 76955","FILE":"3519265","RCS_SIZE":"LARGE","INCLINATION":"53.0561"},{"OBJECT_TYPE":"PAYLOAD","OBJECT_NAME":"STARLINK-2393","MEAN_MOTION_DDOT":"0.0000000000000","CENTER_NAME":"EARTH","DECAY_DATE":null,"LAUNCH_DATE":"2021-03-11","MEAN_MOTION":"15.06382223","MEAN_MOTION_DOT":"-0.00001957","SEMIMAJOR_AXIS":"6925.403","REF_FRAME":"TEME","RA_OF_ASC_NODE":"100.0248","TLE_LINE2":"2 47812  53.0537 100.0248 0001593  67.6246 292.4912 15.06382223 76397","FILE":"3518988","RCS_SIZE":"LARGE","INCLINATION":"53.0537","REV_AT_EPOCH":"7639","ARG_OF_PERICENTER":"67.6246","SITE":"AFETR","BSTAR":"-0.00011257000000","EPOCH":"2022-07-21T09:47:22.237728","PERIOD":"95.593","APOAPSIS":"548.371","PERIAPSIS":"546.165","MEAN_ANOMALY":"292.4912","EPHEMERIS_TYPE":"0","COUNTRY_CODE":"US","CLASSIFICATION_TYPE":"U","OBJECT_ID":"2021-018AB","GP_ID":"208574033","ELEMENT_SET_NO":"999","NORAD_CAT_ID":"47812","TIME_SYSTEM":"UTC","ECCENTRICITY":"0.00015930","MEAN_ELEMENT_THEORY":"SGP4","TLE_LINE1":"1 47812U 21018AB  22202.40789627 -.00001957  00000-0 -11257-3 0  9998"},{"MEAN_ELEMENT_THEORY":"SGP4","TLE_LINE1":"1 47813U 21018AC  22202.32586578 -.00000339  00000-0 -38808-5 0  9996","GP_ID":"208574772","NORAD_CAT_ID":"47813","ELEMENT_SET_NO":"999","TIME_SYSTEM":"UTC","ECCENTRICITY":"0.00014750","EPHEMERIS_TYPE":"0","CLASSIFICATION_TYPE":"U","OBJECT_ID":"2021-018AC","COUNTRY_CODE":"US","SITE":"AFETR","EPOCH":"2022-07-21T07:49:14.803392","BSTAR":"-0.00000388080000","APOAPSIS":"548.254","PERIOD":"95.593","MEAN_ANOMALY":"280.8531","PERIAPSIS":"546.211","REV_AT_EPOCH":"7686","ARG_OF_PERICENTER":"79.2624","TLE_LINE2":"2 47813  53.0554  70.3950 0001475  79.2624 280.8531 15.06393779 76862","FILE":"3518988","RCS_SIZE":"LARGE","INCLINATION":"53.0554","RA_OF_ASC_NODE":"70.3950","REF_FRAME":"TEME","SEMIMAJOR_AXIS":"6925.368","OBJECT_TYPE":"PAYLOAD","MEAN_MOTION_DDOT":"0.0000000000000","OBJECT_NAME":"STARLINK-2394","DECAY_DATE":null,"CENTER_NAME":"EARTH","MEAN_MOTION_DOT":"-0.00000339","MEAN_MOTION":"15.06393779","LAUNCH_DATE":"2021-03-11"},{"OBJECT_NAME":"STARLINK-2395","MEAN_MOTION_DDOT":"0.0000000000000","OBJECT_TYPE":"PAYLOAD","MEAN_MOTION":"15.06400427","LAUNCH_DATE":"2021-03-11","MEAN_MOTION_DOT":"0.00006710","CENTER_NAME":"EARTH","DECAY_DATE":null,"SEMIMAJOR_AXIS":"6925.347","RA_OF_ASC_NODE":"89.9869","REF_FRAME":"TEME","FILE":"3518988","TLE_LINE2":"2 47814  53.0530  89.9869 0001596  64.9798 295.1357 15.06400427 76605","INCLINATION":"53.0530","RCS_SIZE":"LARGE","REV_AT_EPOCH":"7660","ARG_OF_PERICENTER":"64.9798","EPOCH":"2022-07-21T09:59:17.522592","BSTAR":"0.00046892000000","SITE":"AFETR","PERIAPSIS":"546.107","MEAN_ANOMALY":"295.1357","PERIOD":"95.592","APOAPSIS":"548.318","COUNTRY_CODE":"US","OBJECT_ID":"2021-018AD","CLASSIFICATION_TYPE":"U","EPHEMERIS_TYPE":"0","NORAD_CAT_ID":"47814","ELEMENT_SET_NO":"999","TIME_SYSTEM":"UTC","ECCENTRICITY":"0.00015960","GP_ID":"208573032","MEAN_ELEMENT_THEORY":"SGP4","TLE_LINE1":"1 47814U 21018AD  22202.41617503  .00006710  00000-0  46892-3 0  9997"},{"PERIOD":"95.594","APOAPSIS":"548.462","PERIAPSIS":"546.111","MEAN_ANOMALY":"292.1894","SITE":"AFETR","EPOCH":"2022-07-21T18:42:47.998080","BSTAR":"-0.00012442000000","EPHEMERIS_TYPE":"0","COUNTRY_CODE":"US","CLASSIFICATION_TYPE":"U","OBJECT_ID":"2021-018AE","GP_ID":"208604842","ECCENTRICITY":"0.00016970","ELEMENT_SET_NO":"999","NORAD_CAT_ID":"47815","TIME_SYSTEM":"UTC","TLE_LINE1":"1 47815U 21018AE  22202.77972220 -.00002133  00000-0 -12442-3 0  9998","MEAN_ELEMENT_THEORY":"SGP4","CENTER_NAME":"EARTH","DECAY_DATE":null,"MEAN_MOTION":"15.06376179","LAUNCH_DATE":"2021-03-11","MEAN_MOTION_DOT":"-0.00002133","OBJECT_TYPE":"PAYLOAD","OBJECT_NAME":"STARLINK-2396","MEAN_MOTION_DDOT":"0.0000000000000","SEMIMAJOR_AXIS":"6925.422","RA_OF_ASC_NODE":"83.3515","REF_FRAME":"TEME","RCS_SIZE":"LARGE","INCLINATION":"53.0555","TLE_LINE2":"2 47815  53.0555  83.3515 0001697  67.9275 292.1894 15.06376179 76669","FILE":"3519265","ARG_OF_PERICENTER":"67.9275","REV_AT_EPOCH":"7666"},{"TLE_LINE1":"1 47816U 21018AF  22202.39038310 -.00001848  00000-0 -10524-3 0  9991","MEAN_ELEMENT_THEORY":"SGP4","NORAD_CAT_ID":"47816","ELEMENT_SET_NO":"999","ECCENTRICITY":"0.00016380","TIME_SYSTEM":"UTC","GP_ID":"208574534","OBJECT_ID":"2021-018AF","CLASSIFICATION_TYPE":"U","COUNTRY_CODE":"US","EPHEMERIS_TYPE":"0","MEAN_ANOMALY":"287.7022","PERIAPSIS":"546.124","APOAPSIS":"548.393","PERIOD":"95.593","EPOCH":"2022-07-21T09:22:09.099840","BSTAR":"-0.00010524000000","SITE":"AFETR","ARG_OF_PERICENTER":"72.4146","REV_AT_EPOCH":"7653","INCLINATION":"53.0549","RCS_SIZE":"LARGE","FILE":"3518988","TLE_LINE2":"2 47816  53.0549  90.0990 0001638  72.4146 287.7022 15.06385346 76533","RA_OF_ASC_NODE":"90.0990","REF_FRAME":"TEME","SEMIMAJOR_AXIS":"6925.393","MEAN_MOTION_DOT":"-0.00001848","LAUNCH_DATE":"2021-03-11","MEAN_MOTION":"15.06385346","DECAY_DATE":null,"CENTER_NAME":"EARTH","MEAN_MOTION_DDOT":"0.0000000000000","OBJECT_NAME":"STARLINK-2399","OBJECT_TYPE":"PAYLOAD"},{"FILE":"3519265","TLE_LINE2":"2 47817  53.0516  88.8391 0001649  79.0844 281.0330 15.06399700 76570","INCLINATION":"53.0516","RCS_SIZE":"LARGE","REV_AT_EPOCH":"7657","ARG_OF_PERICENTER":"79.0844","OBJECT_NAME":"STARLINK-2400","MEAN_MOTION_DDOT":"0.0000000000000","OBJECT_TYPE":"PAYLOAD","LAUNCH_DATE":"2021-03-11","MEAN_MOTION":"15.06399700","MEAN_MOTION_DOT":"0.00004759","CENTER_NAME":"EARTH","DECAY_DATE":null,"SEMIMAJOR_AXIS":"6925.349","RA_OF_ASC_NODE":"88.8391","REF_FRAME":"TEME","ELEMENT_SET_NO":"999","NORAD_CAT_ID":"47817","ECCENTRICITY":"0.00016490","TIME_SYSTEM":"UTC","GP_ID":"208603851","MEAN_ELEMENT_THEORY":"SGP4","TLE_LINE1":"1 47817U 21018AG  22202.67418822  .00004759  00000-0  33815-3 0  9993","EPOCH":"2022-07-21T16:10:49.862208","BSTAR":"0.00033815000000","SITE":"AFETR","PERIAPSIS":"546.072","MEAN_ANOMALY":"281.0330","PERIOD":"95.592","APOAPSIS":"548.356","COUNTRY_CODE":"US","CLASSIFICATION_TYPE":"U","OBJECT_ID":"2021-018AG","EPHEMERIS_TYPE":"0"},{"MEAN_ANOMALY":"286.2721","PERIAPSIS":"546.151","APOAPSIS":"548.334","PERIOD":"95.593","EPOCH":"2022-07-21T19:59:41.775360","BSTAR":"-0.00018064000000","SITE":"AFETR","CLASSIFICATION_TYPE":"U","OBJECT_ID":"2021-018AH","COUNTRY_CODE":"US","EPHEMERIS_TYPE":"0","ELEMENT_SET_NO":"999","NORAD_CAT_ID":"47818","ECCENTRICITY":"0.00015760","TIME_SYSTEM":"UTC","GP_ID":"208604596","TLE_LINE1":"1 47818U 21018AH  22202.83312240 -.00002970  00000-0 -18064-3 0  9993","MEAN_ELEMENT_THEORY":"SGP4","MEAN_MOTION_DOT":"-0.00002970","LAUNCH_DATE":"2021-03-11","MEAN_MOTION":"15.06390547","DECAY_DATE":null,"CENTER_NAME":"EARTH","MEAN_MOTION_DDOT":"0.0000000000000","OBJECT_NAME":"STARLINK-2401","OBJECT_TYPE":"PAYLOAD","REF_FRAME":"TEME","RA_OF_ASC_NODE":"93.0997","SEMIMAJOR_AXIS":"6925.378","INCLINATION":"53.0535","RCS_SIZE":"LARGE","FILE":"3519265","TLE_LINE2":"2 47818  53.0535  93.0997 0001576  73.8442 286.2721 15.06390547 76534","ARG_OF_PERICENTER":"73.8442","REV_AT_EPOCH":"7653"},{"TLE_LINE2":"2 47819  53.0551  89.9927 0001694  61.2730 298.8429 15.06391207 76608","FILE":"3518988","RCS_SIZE":"LARGE","INCLINATION":"53.0551","REV_AT_EPOCH":"7660","ARG_OF_PERICENTER":"61.2730","OBJECT_TYPE":"PAYLOAD","OBJECT_NAME":"STARLINK-2402","MEAN_MOTION_DDOT":"0.0000000000000","CENTER_NAME":"EARTH","DECAY_DATE":null,"MEAN_MOTION":"15.06391207","LAUNCH_DATE":"2021-03-11","MEAN_MOTION_DOT":"0.00001280","SEMIMAJOR_AXIS":"6925.376","REF_FRAME":"TEME","RA_OF_ASC_NODE":"89.9927","GP_ID":"208573783","ELEMENT_SET_NO":"999","ECCENTRICITY":"0.00016940","NORAD_CAT_ID":"47819","TIME_SYSTEM":"UTC","MEAN_ELEMENT_THEORY":"SGP4","TLE_LINE1":"1 47819U 21018AJ  22202.41154687  .00001280  00000-0  10487-3 0  9999","SITE":"AFETR","BSTAR":"0.00010487000000","EPOCH":"2022-07-21T09:52:37.649568","PERIOD":"95.593","APOAPSIS":"548.414","PERIAPSIS":"546.067","MEAN_ANOMALY":"298.8429","EPHEMERIS_TYPE":"0","COUNTRY_CODE":"US","CLASSIFICATION_TYPE":"U","OBJECT_ID":"2021-018AJ"}];
